[
    {
        "CCSDS_OMM_VERS": "2.0",
        "COMMENT": "GENERATED VIA SPACE-TRACK.ORG API",
        "CREATION_DATE": "2023-07-12T22:26:13",
        "ORIGINATOR": "18 SPCS",
        "OBJECT_NAME": "THOR ABLESTAR DEB",
        "OBJECT_ID": "1961-015AH",
        "CENTER_NAME": "EARTH",
        "REF_FRAME": "TEME",
        "TIME_SYSTEM": "UTC",
        "MEAN_ELEMENT_THEORY": "SGP4",
        "EPOCH": "2023-07-12T14:30:34.441056",
        "MEAN_MOTION": "14.20463090",
        "ECCENTRICITY": "0.00461170",
        "INCLINATION": "66.6178",
        "RA_OF_ASC_NODE": "256.0770",
        "ARG_OF_PERICENTER": "108.2695",
        "MEAN_ANOMALY": "252.3423",
        "EPHEMERIS_TYPE": "0",
        "CLASSIFICATION_TYPE": "U",
        "NORAD_CAT_ID": "147",
        "ELEMENT_SET_NO": "999",
        "REV_AT_EPOCH": "18268",
        "BSTAR": "0.00030547000000",
        "MEAN_MOTION_DOT": "0.00000579",
        "MEAN_MOTION_DDOT": "0.0000000000000",
        "SEMIMAJOR_AXIS": "7201.924",
        "PERIOD": "101.375",
        "APOAPSIS": "857.002",
        "PERIAPSIS": "790.576",
        "OBJECT_TYPE": "DEBRIS",
        "RCS_SIZE": "MEDIUM",
        "COUNTRY_CODE": "US",
        "LAUNCH_DATE": "1961-06-29",
        "SITE": "AFETR",
        "DECAY_DATE": null,
        "FILE": "3956269",
        "GP_ID": "234874855",
        "TLE_LINE0": "0 THOR ABLESTAR DEB",
        "TLE_LINE1": "1   147U 61015AH  23193.60456529  .00000579  00000-0  30547-3 0  9993",
        "TLE_LINE2": "2   147  66.6178 256.0770 0046117 108.2695 252.3423 14.20463090182680"
    },
    {
        "CCSDS_OMM_VERS": "2.0",
        "COMMENT": "GENERATED VIA SPACE-TRACK.ORG API",
        "CREATION_DATE": "2023-07-12T14:26:12",
        "ORIGINATOR": "18 SPCS",
        "OBJECT_NAME": "THOR ABLESTAR DEB",
        "OBJECT_ID": "1961-015AJ",
        "CENTER_NAME": "EARTH",
        "REF_FRAME": "TEME",
        "TIME_SYSTEM": "UTC",
        "MEAN_ELEMENT_THEORY": "SGP4",
        "EPOCH": "2023-07-12T07:37:40.914624",
        "MEAN_MOTION": "14.07022869",
        "ECCENTRICITY": "0.01417820",
        "INCLINATION": "65.7752",
        "RA_OF_ASC_NODE": "42.7151",
        "ARG_OF_PERICENTER": "151.7850",
        "MEAN_ANOMALY": "209.1004",
        "EPHEMERIS_TYPE": "0",
        "CLASSIFICATION_TYPE": "U",
        "NORAD_CAT_ID": "148",
        "ELEMENT_SET_NO": "999",
        "REV_AT_EPOCH": "60859",
        "BSTAR": "0.00072819000000",
        "MEAN_MOTION_DOT": "0.00001247",
        "MEAN_MOTION_DDOT": "0.0000000000000",
        "SEMIMAJOR_AXIS": "7247.714",
        "PERIOD": "102.344",
        "APOAPSIS": "972.339",
        "PERIAPSIS": "766.820",
        "OBJECT_TYPE": "DEBRIS",
        "RCS_SIZE": "MEDIUM",
        "COUNTRY_CODE": "US",
        "LAUNCH_DATE": "1961-06-29",
        "SITE": "AFETR",
        "DECAY_DATE": null,
        "FILE": "3955968",
        "GP_ID": "234868099",
        "TLE_LINE0": "0 THOR ABLESTAR DEB",
        "TLE_LINE1": "1   148U 61015AJ  23193.31783466  .00001247  00000-0  72819-3 0  9996",
        "TLE_LINE2": "2   148  65.7752  42.7151 0141782 151.7850 209.1004 14.07022869608590"
    },
    {
        "CCSDS_OMM_VERS": "2.0",
        "COMMENT": "GENERATED VIA SPACE-TRACK.ORG API",
        "CREATION_DATE": "2023-07-12T15:06:13",
        "ORIGINATOR": "18 SPCS",
        "OBJECT_NAME": "THOR ABLESTAR DEB",
        "OBJECT_ID": "1961-015AL",
        "CENTER_NAME": "EARTH",
        "REF_FRAME": "TEME",
        "TIME_SYSTEM": "UTC",
        "MEAN_ELEMENT_THEORY": "SGP4",
        "EPOCH": "2023-07-12T11:03:34.700256",
        "MEAN_MOTION": "13.82002869",
        "ECCENTRICITY": "0.00588460",
        "INCLINATION": "66.2492",
        "RA_OF_ASC_NODE": "21.1699",
        "ARG_OF_PERICENTER": "165.3974",
        "MEAN_ANOMALY": "194.8813",
        "EPHEMERIS_TYPE": "0",
        "CLASSIFICATION_TYPE": "U",
        "NORAD_CAT_ID": "150",
        "ELEMENT_SET_NO": "999",
        "REV_AT_EPOCH": "96089",
        "BSTAR": "0.00048011000000",
        "MEAN_MOTION_DOT": "0.00000444",
        "MEAN_MOTION_DDOT": "0.0000000000000",
        "SEMIMAJOR_AXIS": "7334.928",
        "PERIOD": "104.197",
        "APOAPSIS": "999.957",
        "PERIAPSIS": "913.630",
        "OBJECT_TYPE": "DEBRIS",
        "RCS_SIZE": "MEDIUM",
        "COUNTRY_CODE": "US",
        "LAUNCH_DATE": "1961-06-29",
        "SITE": "AFETR",
        "DECAY_DATE": null,
        "FILE": "3956121",
        "GP_ID": "234871678",
        "TLE_LINE0": "0 THOR ABLESTAR DEB",
        "TLE_LINE1": "1   150U 61015AL  23193.46081829  .00000444  00000-0  48011-3 0  9994",
        "TLE_LINE2": "2   150  66.2492  21.1699 0058846 165.3974 194.8813 13.82002869960896"
    },
    {
        "CCSDS_OMM_VERS": "2.0",
        "COMMENT": "GENERATED VIA SPACE-TRACK.ORG API",
        "CREATION_DATE": "2023-07-10T22:16:12",
        "ORIGINATOR": "18 SPCS",
        "OBJECT_NAME": "THOR ABLESTAR DEB",
        "OBJECT_ID": "1961-015AN",
        "CENTER_NAME": "EARTH",
        "REF_FRAME": "TEME",
        "TIME_SYSTEM": "UTC",
        "MEAN_ELEMENT_THEORY": "SGP4",
        "EPOCH": "2023-07-10T15:25:32.627136",
        "MEAN_MOTION": "14.09855656",
        "ECCENTRICITY": "0.01571640",
        "INCLINATION": "66.5929",
        "RA_OF_ASC_NODE": "170.3091",
        "ARG_OF_PERICENTER": "208.1618",
        "MEAN_ANOMALY": "151.0905",
        "EPHEMERIS_TYPE": "0",
        "CLASSIFICATION_TYPE": "U",
        "NORAD_CAT_ID": "152",
        "ELEMENT_SET_NO": "999",
        "REV_AT_EPOCH": "17478",
        "BSTAR": "0.00002003700000",
        "MEAN_MOTION_DOT": "-0.00000043",
        "MEAN_MOTION_DDOT": "0.0000000000000",
        "SEMIMAJOR_AXIS": "7238.003",
        "PERIOD": "102.138",
        "APOAPSIS": "973.623",
        "PERIAPSIS": "746.112",
        "OBJECT_TYPE": "DEBRIS",
        "RCS_SIZE": "MEDIUM",
        "COUNTRY_CODE": "US",
        "LAUNCH_DATE": "1961-06-29",
        "SITE": "AFETR",
        "DECAY_DATE": null,
        "FILE": "3954614",
        "GP_ID": "234836043",
        "TLE_LINE0": "0 THOR ABLESTAR DEB",
        "TLE_LINE1": "1   152U 61015AN  23191.64273874 -.00000043  00000-0  20037-4 0  9992",
        "TLE_LINE2": "2   152  66.5929 170.3091 0157164 208.1618 151.0905 14.09855656174785"
    },
    {
        "CCSDS_OMM_VERS": "2.0",
        "COMMENT": "GENERATED VIA SPACE-TRACK.ORG API",
        "CREATION_DATE": "2023-07-12T22:26:13",
        "ORIGINATOR": "18 SPCS",
        "OBJECT_NAME": "THOR ABLESTAR DEB",
        "OBJECT_ID": "1961-015AQ",
        "CENTER_NAME": "EARTH",
        "REF_FRAME": "TEME",
        "TIME_SYSTEM": "UTC",
        "MEAN_ELEMENT_THEORY": "SGP4",
        "EPOCH": "2023-07-12T16:41:22.471872",
        "MEAN_MOTION": "14.05000701",
        "ECCENTRICITY": "0.00800400",
        "INCLINATION": "66.6595",
        "RA_OF_ASC_NODE": "328.3935",
        "ARG_OF_PERICENTER": "25.1510",
        "MEAN_ANOMALY": "335.3439",
        "EPHEMERIS_TYPE": "0",
        "CLASSIFICATION_TYPE": "U",
        "NORAD_CAT_ID": "154",
        "ELEMENT_SET_NO": "999",
        "REV_AT_EPOCH": "16659",
        "BSTAR": "0.00021031000000",
        "MEAN_MOTION_DOT": "0.00000268",
        "MEAN_MOTION_DDOT": "0.0000000000000",
        "SEMIMAJOR_AXIS": "7254.667",
        "PERIOD": "102.491",
        "APOAPSIS": "934.598",
        "PERIAPSIS": "818.466",
        "OBJECT_TYPE": "DEBRIS",
        "RCS_SIZE": "MEDIUM",
        "COUNTRY_CODE": "US",
        "LAUNCH_DATE": "1961-06-29",
        "SITE": "AFETR",
        "DECAY_DATE": null,
        "FILE": "3956259",
        "GP_ID": "234874687",
        "TLE_LINE0": "0 THOR ABLESTAR DEB",
        "TLE_LINE1": "1   154U 61015AQ  23193.69539898  .00000268  00000-0  21031-3 0  9994",
        "TLE_LINE2": "2   154  66.6595 328.3935 0080040  25.1510 335.3439 14.05000701166593"
    },
    {
        "CCSDS_OMM_VERS": "2.0",
        "COMMENT": "GENERATED VIA SPACE-TRACK.ORG API",
        "CREATION_DATE": "2023-07-11T06:26:13",
        "ORIGINATOR": "18 SPCS",
        "OBJECT_NAME": "THOR ABLESTAR DEB",
        "OBJECT_ID": "1961-015AR",
        "CENTER_NAME": "EARTH",
        "REF_FRAME": "TEME",
        "TIME_SYSTEM": "UTC",
        "MEAN_ELEMENT_THEORY": "SGP4",
        "EPOCH": "2023-07-10T21:09:48.057408",
        "MEAN_MOTION": "14.42126660",
        "ECCENTRICITY": "0.00432960",
        "INCLINATION": "66.8782",
        "RA_OF_ASC_NODE": "250.2227",
        "ARG_OF_PERICENTER": "0.1085",
        "MEAN_ANOMALY": "0.0022",
        "EPHEMERIS_TYPE": "0",
        "CLASSIFICATION_TYPE": "U",
        "NORAD_CAT_ID": "155",
        "ELEMENT_SET_NO": "999",
        "REV_AT_EPOCH": "20642",
        "BSTAR": "0.00045736000000",
        "MEAN_MOTION_DOT": "0.00001437",
        "MEAN_MOTION_DDOT": "0.0000000000000",
        "SEMIMAJOR_AXIS": "7129.618",
        "PERIOD": "99.853",
        "APOAPSIS": "782.351",
        "PERIAPSIS": "720.614",
        "OBJECT_TYPE": "DEBRIS",
        "RCS_SIZE": "SMALL",
        "COUNTRY_CODE": "US",
        "LAUNCH_DATE": "1961-06-29",
        "SITE": "AFETR",
        "DECAY_DATE": null,
        "FILE": "3954856",
        "GP_ID": "234841935",
        "TLE_LINE0": "0 THOR ABLESTAR DEB",
        "TLE_LINE1": "1   155U 61015AR  23191.88180622  .00001437  00000-0  45736-3 0  9998",
        "TLE_LINE2": "2   155  66.8782 250.2227 0043296   0.1085   0.0022 14.42126660206428"
    }]